NORAD_CAT_ID,OBJECT_NAME,OBJECT_TYPE,EPOCH,MEAN_MOTION,ECCENTRICITY,INCLINATION,RA_OF_ASC_NODE,ARG_OF_PERICENTER,MEAN_ANOMALY,BSTAR,MEAN_MOTION_DOT,MEAN_MOTION_DDOT,TLE_LINE0,TLE_LINE1,TLE_LINE2,SEMIMAJOR_AXIS,PERIOD,APOGEE,PERIGEE,DECAYED
51864.0,STARLINK-3548,PAYLOAD,2022-07-25 14:00:01,15.08844544,0.0002096,53.2153,188.7682,51.3444,10.38,-0.0020628,-0.00032973,0.0,0 STARLINK-3548,1 51864U 22022N   22206.58334491 -.00032973  00000-0 -20628-2 0  9997,2 51864  53.2153 188.7682 0002096  51.3444  10.3800 15.08844544 23418,6917.866,95.437,541.181,538.2819999999998,0.0
51864.0,STARLINK-3548,PAYLOAD,2022-07-25 22:00:00,15.0882095,0.0002004,53.2156,187.2707,57.5822,15.7316,0.0018762,0.00029683,0.0,0 STARLINK-3548,1 51864U 22022N   22206.91667824  .00029683  00000-0  18762-2 0  9991,2 51864  53.2156 187.2707 0002004  57.5822  15.7316 15.08820950  1300,6917.939,95.439,541.19,538.4169999999998,0.0
51864.0,STARLINK-3548,PAYLOAD,2022-07-26 06:00:00,15.08835636,0.000217,53.2155,185.7762,53.228,31.6727,-0.0005742999999999,-9.416e-05,0.0,0 STARLINK-3548,1 51864U 22022N   22207.25001157 -.00009416  00000-0 -57430-3 0  9990,2 51864  53.2155 185.7762 0002170  53.2280  31.6727 15.08835636 23515,6917.894,95.438,541.26,538.258,0.0
51864.0,STARLINK-3548,PAYLOAD,2022-07-26 14:00:01,15.08852286,0.0002104,53.2154,184.279,53.6509,42.8321,-0.0020886,-0.00033387,0.0,0 STARLINK-3548,1 51864U 22022N   22207.58334491 -.00033387  00000-0 -20886-2 0  9994,2 51864  53.2154 184.2790 0002104  53.6509  42.8321 15.08852286  1301,6917.843000000003,95.437,541.163,538.252,0.0
51864.0,STARLINK-3548,PAYLOAD,2022-07-26 22:00:00,15.08832668,0.0002028,53.2156,182.7817,59.7292,48.349,0.0014012,0.00022078,0.0,0 STARLINK-3548,1 51864U 22022N   22207.91667824  .00022078  00000-0  14012-2 0  9997,2 51864  53.2156 182.7817 0002028  59.7292  48.3490 15.08832668  1307,6917.903,95.438,541.1709999999998,538.365,0.0
51864.0,STARLINK-3548,PAYLOAD,2022-07-27 06:00:02,15.08839977,0.000218,53.2155,181.2871,55.0148,64.7274,-0.00017062,-3.003e-05,0.0,0 STARLINK-3548,1 51864U 22022N   22208.25002315 -.00003003  00000-0 -17062-3 0  9991,2 51864  53.2155 181.2871 0002180  55.0148  64.7274 15.08839977 23663,6917.88,95.438,541.254,538.237,0.0
51864.0,STARLINK-3548,PAYLOAD,2022-07-27 14:00:01,15.0885948,0.0002112,53.2153,179.7899,56.2782,74.9923,-0.0020504,-0.00032791,0.0,0 STARLINK-3548,1 51864U 22022N   22208.58334491 -.00032791  00000-0 -20504-2 0  9990,2 51864  53.2153 179.7899 0002112  56.2782  74.9923 15.08859480  1307,6917.821,95.436,541.1469999999998,538.225,0.0
51864.0,STARLINK-3548,PAYLOAD,2022-07-27 22:00:00,15.08845721,0.000207,53.2156,178.2927,62.1264,80.7476,0.00095513,0.00014948,0.0,0 STARLINK-3548,1 51864U 22022N   22208.91667824  .00014948  00000-0  95513-3 0  9991,2 51864  53.2156 178.2927 0002070  62.1264  80.7476 15.08845721  1301,6917.863,95.437,541.16,538.2959999999998,0.0
51864.0,STARLINK-3548,PAYLOAD,2022-07-28 14:00:01,15.08878182,0.0002096,53.2152,175.3007,57.8723,108.2093,-0.0050882,-0.0008045,0.0,0 STARLINK-3548,1 51864U 22022N   22209.58334491 -.00080450  00000-0 -50882-2 0  9998,2 51864  53.2152 175.3007 0002096  57.8723 108.2093 15.08878182  1301,6917.764,95.435,541.0790000000002,538.179,0.0
51864.0,STARLINK-3548,PAYLOAD,2022-07-28 22:00:00,15.08827425,0.0002023,53.2155,173.8038,62.2809,115.4089,0.00062695,9.701e-05,0.0,0 STARLINK-3548,1 51864U 22022N   22209.91667824  .00009701  00000-0  62695-3 0  9998,2 51864  53.2155 173.8038 0002023  62.2809 115.4089 15.08827425  1305,6917.919,95.438,541.183,538.384,0.0
51864.0,STARLINK-3548,PAYLOAD,2022-07-29 00:00:00,15.08840713,0.0002039,53.2155,173.4302,60.9919,209.5899,-0.0011122,-0.00017946,0.0,0 STARLINK-3548,1 51864U 22022N   22210.00001157 -.00017946  00000-0 -11122-2 0  9991,2 51864  53.2155 173.4302 0002039  60.9919 209.5899 15.08840713 23920,6917.878000000002,95.438,541.154,538.3330000000002,0.0
51864.0,STARLINK-3548,PAYLOAD,2022-07-29 14:00:01,15.0884272,0.0002091,53.2154,170.8116,58.0445,142.8012,-0.001896,-0.0003034,0.0,0 STARLINK-3548,1 51864U 22022N   22210.58334491 -.00030340  00000-0 -18960-2 0  9994,2 51864  53.2154 170.8116 0002091  58.0445 142.8012 15.08842720  1307,6917.871999999999,95.437,541.184,538.2909999999998,0.0
51864.0,STARLINK-3548,PAYLOAD,2022-07-29 22:00:00,15.08837502,0.0002118,53.2157,169.3149,63.0005,149.4281,0.00029129,4.35e-05,0.0,0 STARLINK-3548,1 51864U 22022N   22210.91667824  .00004350  00000-0  29129-3 0  9990,2 51864  53.2157 169.3149 0002118  63.0005 149.4281 15.08837502  1300,6917.888000000001,95.438,541.2180000000002,538.288,0.0
51864.0,STARLINK-3548,PAYLOAD,2022-07-30 14:00:01,15.08849252,0.000218,53.216,166.3225,58.9542,176.6514,-0.0016934,-0.00027145,0.0,0 STARLINK-3548,1 51864U 22022N   22211.58334491 -.00027145  00000-0 -16934-2 0  9993,2 51864  53.2160 166.3225 0002180  58.9542 176.6514 15.08849252  1300,6917.852,95.437,541.225,538.2090000000002,0.0
51864.0,STARLINK-3548,PAYLOAD,2022-07-30 22:00:00,15.08848856,0.0002218999999999,53.2162,164.8259,63.4524,183.7452,-1.3003e-05,-4.95e-06,0.0,0 STARLINK-3548,1 51864U 22022N   22211.91667824 -.00000495  00000-0 -13003-4 0  9994,2 51864  53.2162 164.8259 0002219  63.4524 183.7452 15.08848856  1305,6917.853,95.437,541.253,538.183,0.0
51864.0,STARLINK-3548,PAYLOAD,2022-07-31 06:00:02,15.08828378,0.0002391,53.2164,163.3312,57.8183,201.0527,0.0020266999999999,0.00032105,0.0,0 STARLINK-3548,1 51864U 22022N   22212.25002315  .00032105  00000-0  20267-2 0  9999,2 51864  53.2164 163.3312 0002391  57.8183 201.0527 15.08828378 24264,6917.916,95.438,541.435,538.127,0.0
51864.0,STARLINK-3548,PAYLOAD,2022-07-31 14:00:01,15.08861123,0.0002251999999999,53.2166,161.8335,60.2322,210.1697,-0.0018347,-0.00029387,0.0,0 STARLINK-3548,1 51864U 22022N   22212.58334491 -.00029387  00000-0 -18347-2 0  9994,2 51864  53.2166 161.8335 0002252  60.2322 210.1697 15.08861123  1307,6917.816,95.436,541.239,538.123,0.0
51864.0,STARLINK-3548,PAYLOAD,2022-07-31 22:00:00,15.08856163,0.0002233,53.2168,160.3369,63.2907,218.7176,-0.0021065,-0.00033673,0.0,0 STARLINK-3548,1 51864U 22022N   22212.91667824 -.00033673  00000-0 -21065-2 0  9994,2 51864  53.2168 160.3369 0002233  63.2907 218.7176 15.08856163  1305,6917.831,95.437,541.241,538.151,0.0
51864.0,STARLINK-3548,PAYLOAD,2022-08-01 14:00:01,15.08839188,0.000224,53.217,157.3445,60.8686,244.3221,-0.00077191,-0.00012552,0.0,0 STARLINK-3548,1 51864U 22022N   22213.58334491 -.00012552  00000-0 -77191-3 0  9994,2 51864  53.2170 157.3445 0002240  60.8686 244.3221 15.08839188  1308,6917.8830000000025,95.438,541.297,538.198,0.0
51864.0,STARLINK-3548,PAYLOAD,2022-08-01 22:00:00,15.08852336,0.0002255999999999,53.2172,155.8481,64.1927,252.5833,-0.0005752999999999,-9.436e-05,0.0,0 STARLINK-3548,1 51864U 22022N   22213.91667824 -.00009436  00000-0 -57530-3 0  9992,2 51864  53.2172 155.8481 0002256  64.1927 252.5833 15.08852336  1305,6917.843000000003,95.437,541.268,538.1469999999998,0.0
51864.0,STARLINK-3548,PAYLOAD,2022-08-02 06:00:02,15.08823133,0.0002396999999999,53.2171,154.3533,59.2252,269.2217,0.0025036,0.00039764,0.0,0 STARLINK-3548,1 51864U 22022N   22214.25002315  .00039764  00000-0  25036-2 0  9998,2 51864  53.2171 154.3533 0002397  59.2252 269.2217 15.08823133 24565,6917.932,95.439,541.455,538.139,0.0
51864.0,STARLINK-3548,PAYLOAD,2022-08-02 14:00:01,15.08850149,0.0002236,53.217,152.8554,63.1215,276.8567,-0.00094447,-0.00015293,0.0,0 STARLINK-3548,1 51864U 22022N   22214.58334491 -.00015293  00000-0 -94447-3 0  9993,2 51864  53.2170 152.8554 0002236  63.1215 276.8567 15.08850149 24610,6917.849,95.437,541.261,538.168,0.0
51864.0,STARLINK-3548,PAYLOAD,2022-08-03 14:00:01,15.0882564,0.0002159,53.2166,148.3663,64.8749,309.8839,0.0004921,7.549e-05,0.0,0 STARLINK-3548,1 51864U 22022N   22215.58334491  .00007549  00000-0  49210-3 0  9995,2 51864  53.2166 148.3663 0002159  64.8749 309.8839 15.08825640  1308,6917.924,95.438,541.283,538.2959999999998,0.0
51864.0,STARLINK-3548,PAYLOAD,2022-08-03 22:00:01,15.08853659,0.0002193,53.2166,146.8703,66.589,319.8096,-0.0014103,-0.00022672,0.0,0 STARLINK-3548,1 51864U 22022N   22215.91668981 -.00022672  00000-0 -14103-2 0  9994,2 51864  53.2166 146.8703 0002193  66.5890 319.8096 15.08853659  1307,6917.839,95.437,541.221,538.187,0.0
51864.0,STARLINK-3548,PAYLOAD,2022-08-04 14:00:01,15.08835392,0.0002154999999999,53.216,143.8772,67.4992,342.039,0.00086747,0.00013543,0.0,0 STARLINK-3548,1 51864U 22022N   22216.58334491  .00013543  00000-0  86747-3 0  9993,2 51864  53.2160 143.8772 0002155  67.4992 342.0390 15.08835392  1304,6917.894,95.438,541.25,538.269,0.0
51864.0,STARLINK-3548,PAYLOAD,2022-08-04 22:00:00,15.08866232,0.000217,53.2159,142.3814,68.107,353.0228,-0.0042027,-0.00066606,0.0,0 STARLINK-3548,1 51864U 22022N   22216.91667824 -.00066606  00000-0 -42027-2 0  9991,2 51864  53.2159 142.3814 0002170  68.1070 353.0228 15.08866232  1304,6917.8,95.436,541.1659999999998,538.164,0.0
51864.0,STARLINK-3548,PAYLOAD,2022-08-05 06:00:02,15.08803123,0.0002205,53.2156,140.8861,62.5405,10.2548,0.0028061999999999,0.00044611,0.0,0 STARLINK-3548,1 51864U 22022N   22217.25002315  .00044611  00000-0  28062-2 0  9990,2 51864  53.2156 140.8861 0002205  62.5405  10.2548 15.08803123 25027,6917.993,95.44,541.384,538.3330000000002,0.0
51864.0,STARLINK-3548,PAYLOAD,2022-08-05 14:00:01,15.08814873,0.0002098,53.2155,139.3879,68.4817,15.8926,0.0016054,0.00025337,0.0,0 STARLINK-3548,1 51864U 22022N   22217.58335648  .00025337  00000-0  16054-2 0  9996,2 51864  53.2155 139.3879 0002098  68.4817  15.8926 15.08814873  1300,6917.956999999999,95.439,541.274,538.371,0.0
51864.0,STARLINK-3548,PAYLOAD,2022-08-05 22:00:00,15.08853255,0.0002201,53.2155,137.8922,68.9593,26.9263,-0.0016699999999999,-0.00026779,0.0,0 STARLINK-3548,1 51864U 22022N   22217.91667824 -.00026779  00000-0 -16700-2 0  9998,2 51864  53.2155 137.8922 0002201  68.9593  26.9263 15.08853255 25124,6917.84,95.437,541.227,538.182,0.0
